start=new Date('2021-12-26T00:00:00.000Z').valueOf();
sats=[{"LAUNCH_DATE":"2021-05-26","TIME_SYSTEM":"UTC","MEAN_ELEMENT_THEORY":"SGP4","REF_FRAME":"TEME","APOAPSIS":"548.748","EPHEMERIS_TYPE":"0","ELEMENT_SET_NO":"999","SITE":"AFETR","MEAN_MOTION_DDOT":"0.0000000000000","PERIOD":"95.593","COUNTRY_CODE":"US","OBJECT_NAME":"STARLINK-2647","OBJECT_TYPE":"PAYLOAD","TLE_LINE2":"2 48658  53.0552 171.7570 0002181  90.1916 269.9323 15.06392219 32376","CLASSIFICATION_TYPE":"U","NORAD_CAT_ID":"48658","CENTER_NAME":"EARTH","MEAN_ANOMALY":"269.9323","MEAN_MOTION_DOT":"-0.00000973","SEMIMAJOR_AXIS":"6925.372","MEAN_MOTION":"15.06392219","RA_OF_ASC_NODE":"171.7570","ECCENTRICITY":"0.00021810","ARG_OF_PERICENTER":"90.1916","TLE_LINE1":"1 48658U 21044W   21359.85817923 -.00000973  00000-0 -46390-4 0  9992","REV_AT_EPOCH":"3237","INCLINATION":"53.0552","RCS_SIZE":"LARGE","BSTAR":"-0.00004639000000","OBJECT_ID":"2021-044W","PERIAPSIS":"545.727","GP_ID":"192460036","DECAY_DATE":null,"EPOCH":"2021-12-25T20:35:46.685472","FILE":"3250974"},{"TLE_LINE1":"1 48659U 21044X   21359.85449370 -.00000669  00000-0 -26023-4 0  9993","REV_AT_EPOCH":"3237","SEMIMAJOR_AXIS":"6925.374","RA_OF_ASC_NODE":"171.7650","MEAN_MOTION":"15.06391634","ECCENTRICITY":"0.00023410","ARG_OF_PERICENTER":"91.1685","PERIAPSIS":"545.618","GP_ID":"192458860","EPOCH":"2021-12-25T20:30:28.255680","DECAY_DATE":null,"FILE":"3250974","INCLINATION":"53.0552","RCS_SIZE":"LARGE","BSTAR":"-0.00002602300000","OBJECT_ID":"2021-044X","MEAN_ELEMENT_THEORY":"SGP4","REF_FRAME":"TEME","APOAPSIS":"548.860","EPHEMERIS_TYPE":"0","ELEMENT_SET_NO":"999","LAUNCH_DATE":"2021-05-26","TIME_SYSTEM":"UTC","COUNTRY_CODE":"US","OBJECT_NAME":"STARLINK-2717","OBJECT_TYPE":"PAYLOAD","TLE_LINE2":"2 48659  53.0552 171.7650 0002341  91.1685 268.9572 15.06391634 32373","CLASSIFICATION_TYPE":"U","NORAD_CAT_ID":"48659","CENTER_NAME":"EARTH","MEAN_ANOMALY":"268.9572","MEAN_MOTION_DOT":"-0.00000669","SITE":"AFETR","MEAN_MOTION_DDOT":"0.0000000000000","PERIOD":"95.593"},{"OBJECT_TYPE":"PAYLOAD","TLE_LINE2":"2 48660  53.0546 171.7756 0002513  88.9944 271.1332 15.06400515 32377","OBJECT_NAME":"STARLINK-2688","COUNTRY_CODE":"US","MEAN_MOTION_DOT":"0.00001454","CLASSIFICATION_TYPE":"U","NORAD_CAT_ID":"48660","CENTER_NAME":"EARTH","MEAN_ANOMALY":"271.1332","MEAN_MOTION_DDOT":"0.0000000000000","PERIOD":"95.592","SITE":"AFETR","REF_FRAME":"TEME","MEAN_ELEMENT_THEORY":"SGP4","ELEMENT_SET_NO":"999","APOAPSIS":"548.952","EPHEMERIS_TYPE":"0","TIME_SYSTEM":"UTC","LAUNCH_DATE":"2021-05-26","GP_ID":"192458623","PERIAPSIS":"545.472","EPOCH":"2021-12-25T20:25:09.654816","DECAY_DATE":null,"FILE":"3250974","INCLINATION":"53.0546","RCS_SIZE":"LARGE","OBJECT_ID":"2021-044Y","BSTAR":"0.00011650000000","REV_AT_EPOCH":"3237","TLE_LINE1":"1 48660U 21044Y   21359.85080619  .00001454  00000-0  11650-3 0  9992","SEMIMAJOR_AXIS":"6925.347","MEAN_MOTION":"15.06400515","RA_OF_ASC_NODE":"171.7756","ARG_OF_PERICENTER":"88.9944","ECCENTRICITY":"0.00025130"},{"TIME_SYSTEM":"UTC","LAUNCH_DATE":"2021-05-26","ELEMENT_SET_NO":"999","EPHEMERIS_TYPE":"0","APOAPSIS":"548.908","REF_FRAME":"TEME","MEAN_ELEMENT_THEORY":"SGP4","MEAN_MOTION_DDOT":"0.0000000000000","PERIOD":"95.592","SITE":"AFETR","MEAN_MOTION_DOT":"-0.00000205","CLASSIFICATION_TYPE":"U","NORAD_CAT_ID":"48661","CENTER_NAME":"EARTH","MEAN_ANOMALY":"271.2009","OBJECT_TYPE":"PAYLOAD","TLE_LINE2":"2 48661  53.0560 161.7598 0002464  88.9263 271.2009 15.06404027 32516","COUNTRY_CODE":"US","OBJECT_NAME":"STARLINK-2708","ARG_OF_PERICENTER":"88.9263","ECCENTRICITY":"0.00024640","RA_OF_ASC_NODE":"161.7598","SEMIMAJOR_AXIS":"6925.336","MEAN_MOTION":"15.06404027","REV_AT_EPOCH":"3251","TLE_LINE1":"1 48661U 21044Z   21359.85172141 -.00000205  00000-0  51365-5 0  9998","OBJECT_ID":"2021-044Z","BSTAR":"0.00000513650000","INCLINATION":"53.0560","RCS_SIZE":"LARGE","DECAY_DATE":null,"EPOCH":"2021-12-25T20:26:28.729824","FILE":"3250974","GP_ID":"192459802","PERIAPSIS":"545.495"},{"REV_AT_EPOCH":"3251","TLE_LINE1":"1 48662U 21044AA  21359.84803179 -.00002011  00000-0 -11609-3 0  9993","ARG_OF_PERICENTER":"89.8454","ECCENTRICITY":"0.00023740","RA_OF_ASC_NODE":"161.7888","SEMIMAJOR_AXIS":"6925.311","MEAN_MOTION":"15.06412163","DECAY_DATE":null,"EPOCH":"2021-12-25T20:21:09.946656","FILE":"3250974","GP_ID":"192459566","PERIAPSIS":"545.532","OBJECT_ID":"2021-044AA","BSTAR":"-0.00011609000000","INCLINATION":"53.0556","RCS_SIZE":"LARGE","ELEMENT_SET_NO":"999","EPHEMERIS_TYPE":"0","APOAPSIS":"548.820","REF_FRAME":"TEME","MEAN_ELEMENT_THEORY":"SGP4","TIME_SYSTEM":"UTC","LAUNCH_DATE":"2021-05-26","MEAN_MOTION_DOT":"-0.00002011","CLASSIFICATION_TYPE":"U","NORAD_CAT_ID":"48662","CENTER_NAME":"EARTH","MEAN_ANOMALY":"270.2807","OBJECT_TYPE":"PAYLOAD","TLE_LINE2":"2 48662  53.0556 161.7888 0002374  89.8454 270.2807 15.06412163 32511","OBJECT_NAME":"STARLINK-2726","COUNTRY_CODE":"US","MEAN_MOTION_DDOT":"0.0000000000000","PERIOD":"95.591","SITE":"AFETR"},{"CENTER_NAME":"EARTH","NORAD_CAT_ID":"48663","MEAN_ANOMALY":"268.0824","CLASSIFICATION_TYPE":"U","MEAN_MOTION_DOT":"0.00001258","COUNTRY_CODE":"US","OBJECT_NAME":"STARLINK-2667","TLE_LINE2":"2 48663  53.0547 161.7954 0002371  92.0437 268.0824 15.06402546 32518","OBJECT_TYPE":"PAYLOAD","SITE":"AFETR","PERIOD":"95.592","MEAN_MOTION_DDOT":"0.0000000000000","EPHEMERIS_TYPE":"0","APOAPSIS":"548.848","ELEMENT_SET_NO":"999","MEAN_ELEMENT_THEORY":"SGP4","REF_FRAME":"TEME","LAUNCH_DATE":"2021-05-26","TIME_SYSTEM":"UTC","FILE":"3250974","DECAY_DATE":null,"EPOCH":"2021-12-25T20:15:51.446016","PERIAPSIS":"545.564","GP_ID":"192458388","BSTAR":"0.00010335000000","OBJECT_ID":"2021-044AB","RCS_SIZE":"LARGE","INCLINATION":"53.0547","TLE_LINE1":"1 48663U 21044AB  21359.84434544  .00001258  00000-0  10335-3 0  9995","REV_AT_EPOCH":"3251","ECCENTRICITY":"0.00023710","ARG_OF_PERICENTER":"92.0437","RA_OF_ASC_NODE":"161.7954","SEMIMAJOR_AXIS":"6925.341","MEAN_MOTION":"15.06402546"},{"REF_FRAME":"TEME","MEAN_ELEMENT_THEORY":"SGP4","ELEMENT_SET_NO":"999","EPHEMERIS_TYPE":"0","APOAPSIS":"548.800","TIME_SYSTEM":"UTC","LAUNCH_DATE":"2021-05-26","OBJECT_TYPE":"PAYLOAD","TLE_LINE2":"2 48664  53.0555 161.8220 0002285  92.3147 267.8104 15.06398747 32515","COUNTRY_CODE":"US","OBJECT_NAME":"STARLINK-2709","MEAN_MOTION_DOT":"-0.00000279","CLASSIFICATION_TYPE":"U","NORAD_CAT_ID":"48664","MEAN_ANOMALY":"267.8104","CENTER_NAME":"EARTH","MEAN_MOTION_DDOT":"0.0000000000000","PERIOD":"95.592","SITE":"AFETR","REV_AT_EPOCH":"3251","TLE_LINE1":"1 48664U 21044AC  21359.84066138 -.00000279  00000-0  21426-6 0  9995","RA_OF_ASC_NODE":"161.8220","SEMIMAJOR_AXIS":"6925.352","MEAN_MOTION":"15.06398747","ARG_OF_PERICENTER":"92.3147","ECCENTRICITY":"0.00022850","GP_ID":"192459097","PERIAPSIS":"545.635","DECAY_DATE":null,"EPOCH":"2021-12-25T20:10:33.143232","FILE":"3250974","INCLINATION":"53.0555","RCS_SIZE":"LARGE","OBJECT_ID":"2021-044AC","BSTAR":"0.00000021426000"},{"MEAN_MOTION_DDOT":"0.0000000000000","PERIOD":"95.592","SITE":"AFETR","MEAN_MOTION_DOT":"-0.00000309","CLASSIFICATION_TYPE":"U","NORAD_CAT_ID":"48665","MEAN_ANOMALY":"271.5893","CENTER_NAME":"EARTH","OBJECT_TYPE":"PAYLOAD","TLE_LINE2":"2 48665  53.0554 161.7584 0002144  88.5341 271.5893 15.06405262 32512","COUNTRY_CODE":"US","OBJECT_NAME":"STARLINK-2653","TIME_SYSTEM":"UTC","LAUNCH_DATE":"2021-05-26","ELEMENT_SET_NO":"999","EPHEMERIS_TYPE":"0","APOAPSIS":"548.682","REF_FRAME":"TEME","MEAN_ELEMENT_THEORY":"SGP4","OBJECT_ID":"2021-044AD","BSTAR":"-0.00000182260000","INCLINATION":"53.0554","RCS_SIZE":"LARGE","DECAY_DATE":null,"EPOCH":"2021-12-25T20:30:25.026048","FILE":"3250974","GP_ID":"192459333","PERIAPSIS":"545.713","ARG_OF_PERICENTER":"88.5341","ECCENTRICITY":"0.00021440","SEMIMAJOR_AXIS":"6925.332","MEAN_MOTION":"15.06405262","RA_OF_ASC_NODE":"161.7584","REV_AT_EPOCH":"3251","TLE_LINE1":"1 48665U 21044AD  21359.85445632 -.00000309  00000-0 -18226-5 0  9995"},{"RCS_SIZE":"LARGE","INCLINATION":"53.0542","OBJECT_ID":"2021-044AE","BSTAR":"0.00014879000000","GP_ID":"192460037","PERIAPSIS":"545.690","FILE":"3250974","EPOCH":"2021-12-25T21:18:11.394432","DECAY_DATE":null,"MEAN_MOTION":"15.06399026","SEMIMAJOR_AXIS":"6925.352","RA_OF_ASC_NODE":"161.6035","ARG_OF_PERICENTER":"87.2121","ECCENTRICITY":"0.00022040","REV_AT_EPOCH":"3251","TLE_LINE1":"1 48666U 21044AE  21359.88763188  .00001935  00000-0  14879-3 0  9990","PERIOD":"95.592","MEAN_MOTION_DDOT":"0.0000000000000","SITE":"AFETR","TLE_LINE2":"2 48666  53.0542 161.6035 0002204  87.2121 272.9120 15.06399026 32517","OBJECT_TYPE":"PAYLOAD","COUNTRY_CODE":"US","OBJECT_NAME":"STARLINK-2666","MEAN_MOTION_DOT":"0.00001935","MEAN_ANOMALY":"272.9120","NORAD_CAT_ID":"48666","CENTER_NAME":"EARTH","CLASSIFICATION_TYPE":"U","TIME_SYSTEM":"UTC","LAUNCH_DATE":"2021-05-26","REF_FRAME":"TEME","MEAN_ELEMENT_THEORY":"SGP4","ELEMENT_SET_NO":"999","EPHEMERIS_TYPE":"0","APOAPSIS":"548.743"},{"BSTAR":"-0.00000011416000","OBJECT_ID":"2021-044AF","RCS_SIZE":"LARGE","INCLINATION":"53.0547","FILE":"3250974","EPOCH":"2021-12-25T20:05:14.845632","DECAY_DATE":null,"PERIAPSIS":"545.735","GP_ID":"192458861","ECCENTRICITY":"0.00021410","ARG_OF_PERICENTER":"91.0796","RA_OF_ASC_NODE":"161.8279","SEMIMAJOR_AXIS":"6925.352","MEAN_MOTION":"15.06398745","TLE_LINE1":"1 48667U 21044AF  21359.83697738 -.00000283  00000-0 -11416-6 0  9997","REV_AT_EPOCH":"3251","SITE":"AFETR","PERIOD":"95.592","MEAN_MOTION_DDOT":"0.0000000000000","NORAD_CAT_ID":"48667","MEAN_ANOMALY":"269.0438","CENTER_NAME":"EARTH","CLASSIFICATION_TYPE":"U","MEAN_MOTION_DOT":"-0.00000283","COUNTRY_CODE":"US","OBJECT_NAME":"STARLINK-2735","TLE_LINE2":"2 48667  53.0547 161.8279 0002141  91.0796 269.0438 15.06398745 32512","OBJECT_TYPE":"PAYLOAD","LAUNCH_DATE":"2021-05-26","TIME_SYSTEM":"UTC","EPHEMERIS_TYPE":"0","APOAPSIS":"548.700","ELEMENT_SET_NO":"999","MEAN_ELEMENT_THEORY":"SGP4","REF_FRAME":"TEME"}];
